[{"CCSDS_OMM_VERS":"2.0","COMMENT":"GENERATED VIA SPACE-TRACK.ORG API","CREATION_DATE":"2004-08-15T23:35:29","ORIGINATOR":"18 SPCS","OBJECT_NAME":"DISCOVERER 23","OBJECT_ID":"1961-011A","CENTER_NAME":"EARTH","REF_FRAME":"TEME","TIME_SYSTEM":"UTC","MEAN_ELEMENT_THEORY":"SGP4","EPOCH":"1962-04-08T07:08:58.988543","MEAN_MOTION":"16.09519096","ECCENTRICITY":"0.00305040","INCLINATION":"82.2270","RA_OF_ASC_NODE":"159.1991","ARG_OF_PERICENTER":"264.6516","MEAN_ANOMALY":"94.9985","EPHEMERIS_TYPE":"0","CLASSIFICATION_TYPE":"U","NORAD_CAT_ID":"100","ELEMENT_SET_NO":"999","REV_AT_EPOCH":"5672","BSTAR":"0.00000000000000","MEAN_MOTION_DOT":"0.00498777","MEAN_MOTION_DDOT":"0.0000000000000","SEMIMAJOR_AXIS":"6626.304","PERIOD":"89.467","APOAPSIS":"268.381","PERIAPSIS":"227.956","OBJECT_TYPE":"PAYLOAD","RCS_SIZE":null,"COUNTRY_CODE":null,"LAUNCH_DATE":null,"SITE":null,"DECAY_DATE":"1962-04-16","FILE":"33908","GP_ID":"8675422","TLE_LINE0":"0 DISCOVERER 23","TLE_LINE1":"1 00100U 61011  A 62098.29790496  .00498777 +00000-0 +00000-0 0  9993","TLE_LINE2":"2 00100 082.2270 159.1991 0030504 264.6516 094.9985 16.09519096056721"},{"CCSDS_OMM_VERS":"2.0","COMMENT":"GENERATED VIA SPACE-TRACK.ORG API","CREATION_DATE":"2004-08-15T23:35:29","ORIGINATOR":"18 SPCS","OBJECT_NAME":"MIDAS 5 DEB","OBJECT_ID":"1962-010B","CENTER_NAME":"EARTH","REF_FRAME":"TEME","TIME_SYSTEM":"UTC","MEAN_ELEMENT_THEORY":"SGP4","EPOCH":"1962-04-11T20:02:14.909856","MEAN_MOTION":"12.62199136","ECCENTRICITY":"0.16877990","INCLINATION":"86.6390","RA_OF_ASC_NODE":"125.3948","ARG_OF_PERICENTER":"164.3815","MEAN_ANOMALY":"172.0584","EPHEMERIS_TYPE":"0","CLASSIFICATION_TYPE":"U","NORAD_CAT_ID":"272","ELEMENT_SET_NO":"999","REV_AT_EPOCH":"28","BSTAR":"0.00000000000000","MEAN_MOTION_DOT":"0.04379992","MEAN_MOTION_DDOT":"0.0000000000000","SEMIMAJOR_AXIS":"7792.022","PERIOD":"114.086","APOAPSIS":"2729.024","PERIAPSIS":"98.750","OBJECT_TYPE":"DEBRIS","RCS_SIZE":null,"COUNTRY_CODE":null,"LAUNCH_DATE":null,"SITE":null,"DECAY_DATE":"1962-05-04","FILE":"33908","GP_ID":"8677301","TLE_LINE0":"0 MIDAS 5 DEB","TLE_LINE1":"1 00272U 62010  B 62101.83489479  .04379992 +00000-0 +00000-0 0  9995","TLE_LINE2":"2 00272 086.6390 125.3948 1687799 164.3815 172.0584 12.62199136000289"},{"CCSDS_OMM_VERS":"2.0","COMMENT":"GENERATED VIA SPACE-TRACK.ORG API","CREATION_DATE":"2004-08-15T23:35:29","ORIGINATOR":"18 SPCS","OBJECT_NAME":"DISCOVERER 21","OBJECT_ID":"1961-006A","CENTER_NAME":"EARTH","REF_FRAME":"TEME","TIME_SYSTEM":"UTC","MEAN_ELEMENT_THEORY":"SGP4","EPOCH":"1962-04-18T11:47:56.503679","MEAN_MOTION":"16.12462598","ECCENTRICITY":"0.00538080","INCLINATION":"80.6348","RA_OF_ASC_NODE":"36.1968","ARG_OF_PERICENTER":"166.7139","MEAN_ANOMALY":"193.2084","EPHEMERIS_TYPE":"0","CLASSIFICATION_TYPE":"U","NORAD_CAT_ID":"84","ELEMENT_SET_NO":"999","REV_AT_EPOCH":"6439","BSTAR":"0.00000000000000","MEAN_MOTION_DOT":"0.00734000","MEAN_MOTION_DDOT":"0.0000000000000","SEMIMAJOR_AXIS":"6618.237","PERIOD":"89.304","APOAPSIS":"275.713","PERIAPSIS":"204.491","OBJECT_TYPE":"PAYLOAD","RCS_SIZE":null,"COUNTRY_CODE":null,"LAUNCH_DATE":null,"SITE":null,"DECAY_DATE":"1962-04-20","FILE":"33908","GP_ID":"8675382","TLE_LINE0":"0 DISCOVERER 21","TLE_LINE1":"1 00084U 61006  A 62108.49162620  .00734000 +00000-0 +00000-0 0  9996","TLE_LINE2":"2 00084 080.6348 036.1968 0053808 166.7139 193.2084 16.12462598064396"},{"CCSDS_OMM_VERS":"2.0","COMMENT":"GENERATED VIA SPACE-TRACK.ORG API","CREATION_DATE":"2004-08-15T23:35:29","ORIGINATOR":"18 SPCS","OBJECT_NAME":"FTV 1125","OBJECT_ID":"1962-017A","CENTER_NAME":"EARTH","REF_FRAME":"TEME","TIME_SYSTEM":"UTC","MEAN_ELEMENT_THEORY":"SGP4","EPOCH":"1962-05-17T13:48:31.691520","MEAN_MOTION":"16.02492180","ECCENTRICITY":"0.01404590","INCLINATION":"73.0672","RA_OF_ASC_NODE":"250.4794","ARG_OF_PERICENTER":"94.4287","MEAN_ANOMALY":"152.6671","EPHEMERIS_TYPE":"0","CLASSIFICATION_TYPE":"U","NORAD_CAT_ID":"290","ELEMENT_SET_NO":"999","REV_AT_EPOCH":"295","BSTAR":"0.00000000000000","MEAN_MOTION_DOT":"0.01050224","MEAN_MOTION_DDOT":"0.0000000000000","SEMIMAJOR_AXIS":"6645.660","PERIOD":"89.860","APOAPSIS":"360.870","PERIAPSIS":"174.181","OBJECT_TYPE":"PAYLOAD","RCS_SIZE":null,"COUNTRY_CODE":null,"LAUNCH_DATE":null,"SITE":null,"DECAY_DATE":"1962-05-26","FILE":"33908","GP_ID":"8677415","TLE_LINE0":"0 FTV 1125","TLE_LINE1":"1 00290U 62017  A 62137.57536680  .01050224 +00000-0 +00000-0 0  9990","TLE_LINE2":"2 00290 073.0672 250.4794 0140459 094.4287 152.6671 16.02492180002953"},{"CCSDS_OMM_VERS":"2.0","COMMENT":"GENERATED VIA SPACE-TRACK.ORG API","CREATION_DATE":"2004-08-15T23:35:29","ORIGINATOR":"18 SPCS","OBJECT_NAME":"DISCOVERER 23 CAPSULE","OBJECT_ID":"1961-011B","CENTER_NAME":"EARTH","REF_FRAME":"TEME","TIME_SYSTEM":"UTC","MEAN_ELEMENT_THEORY":"SGP4","EPOCH":"1962-05-21T13:41:48.703775","MEAN_MOTION":"16.31367068","ECCENTRICITY":"0.00000000","INCLINATION":"81.8800","RA_OF_ASC_NODE":"137.0465","ARG_OF_PERICENTER":"256.3089","MEAN_ANOMALY":"108.2152","EPHEMERIS_TYPE":"0","CLASSIFICATION_TYPE":"U","NORAD_CAT_ID":"102","ELEMENT_SET_NO":"999","REV_AT_EPOCH":"6060","BSTAR":"0.00000000000000","MEAN_MOTION_DOT":"0.02778262","MEAN_MOTION_DDOT":"0.0000000000000","SEMIMAJOR_AXIS":"6567.009","PERIOD":"88.269","APOAPSIS":"188.874","PERIAPSIS":"188.874","OBJECT_TYPE":"PAYLOAD","RCS_SIZE":null,"COUNTRY_CODE":null,"LAUNCH_DATE":null,"SITE":null,"DECAY_DATE":"1962-05-23","FILE":"33908","GP_ID":"8675465","TLE_LINE0":"0 DISCOVERER 23 CAPSULE","TLE_LINE1":"1 00102U 61011  B 62141.57070259  .02778262 +00000-0 +00000-0 0  9995","TLE_LINE2":"2 00102 081.8800 137.0465 0000000 256.3089 108.2152 16.31367068060601"},{"CCSDS_OMM_VERS":"2.0","COMMENT":"GENERATED VIA SPACE-TRACK.ORG API","CREATION_DATE":"2004-08-15T23:35:29","ORIGINATOR":"18 SPCS","OBJECT_NAME":"COSMOS 1 (SPUTNIK 11)","OBJECT_ID":"1962-008A","CENTER_NAME":"EARTH","REF_FRAME":"TEME","TIME_SYSTEM":"UTC","MEAN_ELEMENT_THEORY":"SGP4","EPOCH":"1962-05-21T21:00:24.356160","MEAN_MOTION":"16.04632966","ECCENTRICITY":"0.01195980","INCLINATION":"48.9855","RA_OF_ASC_NODE":"317.5610","ARG_OF_PERICENTER":"42.4543","MEAN_ANOMALY":"141.8598","EPHEMERIS_TYPE":"0","CLASSIFICATION_TYPE":"U","NORAD_CAT_ID":"266","ELEMENT_SET_NO":"999","REV_AT_EPOCH":"1022","BSTAR":"0.00000000000000","MEAN_MOTION_DOT":"0.02135369","MEAN_MOTION_DDOT":"0.0000000000000","SEMIMAJOR_AXIS":"6639.748","PERIOD":"89.740","APOAPSIS":"341.023","PERIAPSIS":"182.203","OBJECT_TYPE":"PAYLOAD","RCS_SIZE":null,"COUNTRY_CODE":null,"LAUNCH_DATE":null,"SITE":null,"DECAY_DATE":"1962-05-23","FILE":"33908","GP_ID":"8677197","TLE_LINE0":"0 COSMOS 1 (SPUTNIK 11)","TLE_LINE1":"1 00266U 62008  A 62141.87528190  .02135369 +00000-0 +00000-0 0  9993","TLE_LINE2":"2 00266 048.9855 317.5610 0119598 042.4543 141.8598 16.04632966010227"},{"CCSDS_OMM_VERS":"2.0","COMMENT":"GENERATED VIA SPACE-TRACK.ORG API","CREATION_DATE":"2004-08-15T23:35:29","ORIGINATOR":"18 SPCS","OBJECT_NAME":"FTV 1154","OBJECT_ID":"1962-011A","CENTER_NAME":"EARTH","REF_FRAME":"TEME","TIME_SYSTEM":"UTC","MEAN_ELEMENT_THEORY":"SGP4","EPOCH":"1962-05-22T17:10:16.841279","MEAN_MOTION":"16.34562408","ECCENTRICITY":"0.00003620","INCLINATION":"73.5580","RA_OF_ASC_NODE":"207.2731","ARG_OF_PERICENTER":"63.4595","MEAN_ANOMALY":"231.9827","EPHEMERIS_TYPE":"0","CLASSIFICATION_TYPE":"U","NORAD_CAT_ID":"276","ELEMENT_SET_NO":"999","REV_AT_EPOCH":"552","BSTAR":"0.00000000000000","MEAN_MOTION_DOT":"0.03426992","MEAN_MOTION_DDOT":"0.0000000000000","SEMIMAJOR_AXIS":"6558.448","PERIOD":"88.096","APOAPSIS":"180.550","PERIAPSIS":"180.076","OBJECT_TYPE":"PAYLOAD","RCS_SIZE":null,"COUNTRY_CODE":null,"LAUNCH_DATE":null,"SITE":null,"DECAY_DATE":"1962-05-28","FILE":"33908","GP_ID":"8677330","TLE_LINE0":"0 FTV 1154","TLE_LINE1":"1 00276U 62011  A 62142.71547270  .03426992 +00000-0 +00000-0 0  9998","TLE_LINE2":"2 00276 073.5580 207.2731 0000362 063.4595 231.9827 16.34562408005523"},{"CCSDS_OMM_VERS":"2.0","COMMENT":"GENERATED VIA SPACE-TRACK.ORG API","CREATION_DATE":"2004-08-15T23:35:29","ORIGINATOR":"18 SPCS","OBJECT_NAME":"FTV 1127 DEB","OBJECT_ID":"1962-022C","CENTER_NAME":"EARTH","REF_FRAME":"TEME","TIME_SYSTEM":"UTC","MEAN_ELEMENT_THEORY":"SGP4","EPOCH":"1962-06-02T21:04:07.855679","MEAN_MOTION":"16.02253428","ECCENTRICITY":"0.01369480","INCLINATION":"74.2554","RA_OF_ASC_NODE":"327.2565","ARG_OF_PERICENTER":"132.7372","MEAN_ANOMALY":"53.8840","EPHEMERIS_TYPE":"0","CLASSIFICATION_TYPE":"U","NORAD_CAT_ID":"306","ELEMENT_SET_NO":"999","REV_AT_EPOCH":"14","BSTAR":"0.00000000000000","MEAN_MOTION_DOT":"0.07149502","MEAN_MOTION_DDOT":"0.0000000000000","SEMIMAJOR_AXIS":"6646.320","PERIOD":"89.873","APOAPSIS":"359.206","PERIAPSIS":"177.165","OBJECT_TYPE":"DEBRIS","RCS_SIZE":null,"COUNTRY_CODE":null,"LAUNCH_DATE":null,"SITE":null,"DECAY_DATE":"1962-06-06","FILE":"33908","GP_ID":"8677576","TLE_LINE0":"0 FTV 1127 DEB","TLE_LINE1":"1 00306U 62022  C 62153.87786870  .07149502 +00000-0 +00000-0 0  9997","TLE_LINE2":"2 00306 074.2554 327.2565 0136948 132.7372 053.8840 16.02253428000140"}]